start=new Date('2022-04-21T00:00:00.000Z').valueOf();
sats=[{"LAUNCH_DATE":"2021-05-04","CENTER_NAME":"EARTH","OBJECT_TYPE":"PAYLOAD","MEAN_MOTION":"15.06399544","DECAY_DATE":null,"APOAPSIS":"548.389","REF_FRAME":"TEME","TLE_LINE1":"1 48386U 21038AK  22110.80536217  .00000015  00000-0  19936-4 0  9999","EPOCH":"2022-04-20T19:19:43.291488","TIME_SYSTEM":"UTC","ELEMENT_SET_NO":"999","MEAN_MOTION_DDOT":"0.0000000000000","MEAN_ELEMENT_THEORY":"SGP4","TLE_LINE2":"2 48386  53.0546 236.2450 0001696  56.6415 303.4736 15.06399544 53375","OBJECT_NAME":"STARLINK-2606","COUNTRY_CODE":"US","PERIAPSIS":"546.040","CLASSIFICATION_TYPE":"U","REV_AT_EPOCH":"5337","ARG_OF_PERICENTER":"56.6415","RA_OF_ASC_NODE":"236.2450","MEAN_ANOMALY":"303.4736","INCLINATION":"53.0546","SITE":"AFETR","MEAN_MOTION_DOT":"0.00000015","RCS_SIZE":"LARGE","SEMIMAJOR_AXIS":"6925.350","OBJECT_ID":"2021-038AK","GP_ID":"201714563","ECCENTRICITY":"0.00016960","BSTAR":"0.00001993600000","EPHEMERIS_TYPE":"0","NORAD_CAT_ID":"48386","PERIOD":"95.592","FILE":"3409979"},{"OBJECT_TYPE":"PAYLOAD","CENTER_NAME":"EARTH","LAUNCH_DATE":"2021-05-04","MEAN_MOTION":"15.06408479","REF_FRAME":"TEME","APOAPSIS":"548.458","DECAY_DATE":null,"TLE_LINE1":"1 48387U 21038AL  22110.83852577  .00001169  00000-0  97349-4 0  9998","ELEMENT_SET_NO":"999","EPOCH":"2022-04-20T20:07:28.626528","TIME_SYSTEM":"UTC","MEAN_MOTION_DDOT":"0.0000000000000","MEAN_ELEMENT_THEORY":"SGP4","PERIAPSIS":"545.917","COUNTRY_CODE":"US","CLASSIFICATION_TYPE":"U","TLE_LINE2":"2 48387  53.0541 236.0940 0001834  44.2436 315.8700 15.06408479 53380","OBJECT_NAME":"STARLINK-2600","ARG_OF_PERICENTER":"44.2436","REV_AT_EPOCH":"5338","INCLINATION":"53.0541","RA_OF_ASC_NODE":"236.0940","MEAN_ANOMALY":"315.8700","OBJECT_ID":"2021-038AL","SEMIMAJOR_AXIS":"6925.323","SITE":"AFETR","RCS_SIZE":"LARGE","MEAN_MOTION_DOT":"0.00001169","GP_ID":"201714313","ECCENTRICITY":"0.00018340","BSTAR":"0.00009734900000","EPHEMERIS_TYPE":"0","PERIOD":"95.592","FILE":"3409979","NORAD_CAT_ID":"48387"},{"ARG_OF_PERICENTER":"65.3007","REV_AT_EPOCH":"5335","INCLINATION":"53.0559","MEAN_ANOMALY":"294.8158","RA_OF_ASC_NODE":"237.0100","SITE":"AFETR","RCS_SIZE":"LARGE","MEAN_MOTION_DOT":"-0.00001328","SEMIMAJOR_AXIS":"6925.347","OBJECT_ID":"2021-038AM","GP_ID":"201680420","ECCENTRICITY":"0.00016850","BSTAR":"-0.00007024800000","EPHEMERIS_TYPE":"0","NORAD_CAT_ID":"48388","FILE":"3409639","PERIOD":"95.592","CENTER_NAME":"EARTH","LAUNCH_DATE":"2021-05-04","OBJECT_TYPE":"PAYLOAD","MEAN_MOTION":"15.06400596","APOAPSIS":"548.379","REF_FRAME":"TEME","DECAY_DATE":null,"TLE_LINE1":"1 48388U 21038AM  22110.63306964 -.00001328  00000-0 -70248-4 0  9999","ELEMENT_SET_NO":"999","EPOCH":"2022-04-20T15:11:37.216896","TIME_SYSTEM":"UTC","MEAN_MOTION_DDOT":"0.0000000000000","MEAN_ELEMENT_THEORY":"SGP4","OBJECT_NAME":"STARLINK-2594","TLE_LINE2":"2 48388  53.0559 237.0100 0001685  65.3007 294.8158 15.06400596 53353","CLASSIFICATION_TYPE":"U","COUNTRY_CODE":"US","PERIAPSIS":"546.045"},{"DECAY_DATE":null,"APOAPSIS":"548.431","REF_FRAME":"TEME","TLE_LINE1":"1 48389U 21038AN  22110.62062241  .00000711  00000-0  66633-4 0  9992","OBJECT_TYPE":"PAYLOAD","LAUNCH_DATE":"2021-05-04","CENTER_NAME":"EARTH","MEAN_MOTION":"15.06408953","MEAN_ELEMENT_THEORY":"SGP4","CLASSIFICATION_TYPE":"U","COUNTRY_CODE":"US","PERIAPSIS":"545.941","OBJECT_NAME":"STARLINK-1904","TLE_LINE2":"2 48389  53.0554 232.0695 0001798  64.6115 295.5060 15.06408953 53412","TIME_SYSTEM":"UTC","EPOCH":"2022-04-20T14:53:41.776224","ELEMENT_SET_NO":"999","MEAN_MOTION_DDOT":"0.0000000000000","SEMIMAJOR_AXIS":"6925.321","OBJECT_ID":"2021-038AN","RCS_SIZE":"LARGE","SITE":"AFETR","MEAN_MOTION_DOT":"0.00000711","GP_ID":"201680670","REV_AT_EPOCH":"5341","ARG_OF_PERICENTER":"64.6115","MEAN_ANOMALY":"295.5060","RA_OF_ASC_NODE":"232.0695","INCLINATION":"53.0554","EPHEMERIS_TYPE":"0","FILE":"3409639","PERIOD":"95.592","NORAD_CAT_ID":"48389","ECCENTRICITY":"0.00017980","BSTAR":"0.00006663300000"},{"ECCENTRICITY":"0.00018650","BSTAR":"0.00029397000000","EPHEMERIS_TYPE":"0","NORAD_CAT_ID":"48390","FILE":"3409979","PERIOD":"95.592","REV_AT_EPOCH":"5466","ARG_OF_PERICENTER":"47.3954","RA_OF_ASC_NODE":"231.1961","MEAN_ANOMALY":"312.7192","INCLINATION":"53.0535","RCS_SIZE":"LARGE","SITE":"AFETR","MEAN_MOTION_DOT":"0.00004100","OBJECT_ID":"2021-038AP","SEMIMAJOR_AXIS":"6925.351","GP_ID":"201714063","TIME_SYSTEM":"UTC","EPOCH":"2022-04-20T19:35:00.640896","ELEMENT_SET_NO":"999","MEAN_MOTION_DDOT":"0.0000000000000","MEAN_ELEMENT_THEORY":"SGP4","TLE_LINE2":"2 48390  53.0535 231.1961 0001865  47.3954 312.7192 15.06399194 54665","OBJECT_NAME":"STARLINK-2586","PERIAPSIS":"545.924","COUNTRY_CODE":"US","CLASSIFICATION_TYPE":"U","LAUNCH_DATE":"2021-05-04","CENTER_NAME":"EARTH","OBJECT_TYPE":"PAYLOAD","MEAN_MOTION":"15.06399194","DECAY_DATE":null,"REF_FRAME":"TEME","APOAPSIS":"548.508","TLE_LINE1":"1 48390U 21038AP  22110.81597964  .00004100  00000-0  29397-3 0  9991"},{"MEAN_MOTION":"15.06395990","CENTER_NAME":"EARTH","LAUNCH_DATE":"2021-05-04","OBJECT_TYPE":"PAYLOAD","TLE_LINE1":"1 48391U 21038AQ  22110.74594975 -.00002821  00000-0 -17054-3 0  9990","REF_FRAME":"TEME","APOAPSIS":"548.588","DECAY_DATE":null,"MEAN_MOTION_DDOT":"0.0000000000000","ELEMENT_SET_NO":"999","TIME_SYSTEM":"UTC","EPOCH":"2022-04-20T17:54:10.058400","TLE_LINE2":"2 48391  53.0556 231.5122 0001967  47.6282 312.4873 15.06395990 54654","OBJECT_NAME":"STARLINK-2607","COUNTRY_CODE":"US","PERIAPSIS":"545.864","CLASSIFICATION_TYPE":"U","MEAN_ELEMENT_THEORY":"SGP4","INCLINATION":"53.0556","MEAN_ANOMALY":"312.4873","RA_OF_ASC_NODE":"231.5122","ARG_OF_PERICENTER":"47.6282","REV_AT_EPOCH":"5465","GP_ID":"201714814","SITE":"AFETR","RCS_SIZE":"LARGE","MEAN_MOTION_DOT":"-0.00002821","SEMIMAJOR_AXIS":"6925.361","OBJECT_ID":"2021-038AQ","BSTAR":"-0.00017054000000","ECCENTRICITY":"0.00019670","NORAD_CAT_ID":"48391","PERIOD":"95.592","FILE":"3409979","EPHEMERIS_TYPE":"0"},{"EPHEMERIS_TYPE":"0","PERIOD":"95.592","FILE":"3409639","NORAD_CAT_ID":"48392","ECCENTRICITY":"0.00017980","BSTAR":"-0.00003249500000","SEMIMAJOR_AXIS":"6925.340","OBJECT_ID":"2021-038AR","MEAN_MOTION_DOT":"-0.00000766","SITE":"AFETR","RCS_SIZE":"LARGE","GP_ID":"201680920","REV_AT_EPOCH":"5463","ARG_OF_PERICENTER":"49.6627","MEAN_ANOMALY":"310.4518","RA_OF_ASC_NODE":"232.1243","INCLINATION":"53.0557","MEAN_ELEMENT_THEORY":"SGP4","CLASSIFICATION_TYPE":"U","COUNTRY_CODE":"US","PERIAPSIS":"545.959","TLE_LINE2":"2 48392  53.0557 232.1243 0001798  49.6627 310.4518 15.06402920 54638","OBJECT_NAME":"STARLINK-2605","TIME_SYSTEM":"UTC","EPOCH":"2022-04-20T14:37:46.517088","ELEMENT_SET_NO":"999","MEAN_MOTION_DDOT":"0.0000000000000","DECAY_DATE":null,"APOAPSIS":"548.450","REF_FRAME":"TEME","TLE_LINE1":"1 48392U 21038AR  22110.60956617 -.00000766  00000-0 -32495-4 0  9994","OBJECT_TYPE":"PAYLOAD","LAUNCH_DATE":"2021-05-04","CENTER_NAME":"EARTH","MEAN_MOTION":"15.06402920"},{"OBJECT_ID":"2021-038AS","SEMIMAJOR_AXIS":"6925.328","SITE":"AFETR","RCS_SIZE":"LARGE","MEAN_MOTION_DOT":"0.00000688","GP_ID":"201681170","ARG_OF_PERICENTER":"52.2115","REV_AT_EPOCH":"5463","INCLINATION":"53.0544","MEAN_ANOMALY":"307.9036","RA_OF_ASC_NODE":"232.1454","EPHEMERIS_TYPE":"0","PERIOD":"95.592","FILE":"3409639","NORAD_CAT_ID":"48393","ECCENTRICITY":"0.00018010","BSTAR":"0.00006507200000","APOAPSIS":"548.441","REF_FRAME":"TEME","DECAY_DATE":null,"TLE_LINE1":"1 48393U 21038AS  22110.60587794  .00000688  00000-0  65072-4 0  9999","OBJECT_TYPE":"PAYLOAD","CENTER_NAME":"EARTH","LAUNCH_DATE":"2021-05-04","MEAN_MOTION":"15.06406614","MEAN_ELEMENT_THEORY":"SGP4","COUNTRY_CODE":"US","PERIAPSIS":"545.946","CLASSIFICATION_TYPE":"U","TLE_LINE2":"2 48393  53.0544 232.1454 0001801  52.2115 307.9036 15.06406614 54636","OBJECT_NAME":"STARLINK-2602","ELEMENT_SET_NO":"999","EPOCH":"2022-04-20T14:32:27.854016","TIME_SYSTEM":"UTC","MEAN_MOTION_DDOT":"0.0000000000000"},{"NORAD_CAT_ID":"48394","PERIOD":"95.592","FILE":"3409979","EPHEMERIS_TYPE":"0","BSTAR":"0.00012449000000","ECCENTRICITY":"0.00016400","GP_ID":"201714564","RCS_SIZE":"LARGE","SITE":"AFETR","MEAN_MOTION_DOT":"0.00001573","SEMIMAJOR_AXIS":"6925.336","OBJECT_ID":"2021-038AT","INCLINATION":"53.0553","RA_OF_ASC_NODE":"231.2564","MEAN_ANOMALY":"301.3075","ARG_OF_PERICENTER":"58.8074","REV_AT_EPOCH":"5466","OBJECT_NAME":"STARLINK-2573","TLE_LINE2":"2 48394  53.0553 231.2564 0001640  58.8074 301.3075 15.06404216 54666","PERIAPSIS":"546.065","COUNTRY_CODE":"US","CLASSIFICATION_TYPE":"U","MEAN_ELEMENT_THEORY":"SGP4","MEAN_MOTION_DDOT":"0.0000000000000","ELEMENT_SET_NO":"999","EPOCH":"2022-04-20T19:13:46.451712","TIME_SYSTEM":"UTC","TLE_LINE1":"1 48394U 21038AT  22110.80123208  .00001573  00000-0  12449-3 0  9991","APOAPSIS":"548.336","REF_FRAME":"TEME","DECAY_DATE":null,"MEAN_MOTION":"15.06404216","CENTER_NAME":"EARTH","LAUNCH_DATE":"2021-05-04","OBJECT_TYPE":"PAYLOAD"},{"ECCENTRICITY":"0.00018170","BSTAR":"0.00021655000000","EPHEMERIS_TYPE":"0","NORAD_CAT_ID":"48395","PERIOD":"95.592","FILE":"3409979","REV_AT_EPOCH":"5465","ARG_OF_PERICENTER":"50.7357","MEAN_ANOMALY":"309.3793","RA_OF_ASC_NODE":"231.6263","INCLINATION":"53.0553","SITE":"AFETR","MEAN_MOTION_DOT":"0.00002946","RCS_SIZE":"LARGE","SEMIMAJOR_AXIS":"6925.331","OBJECT_ID":"2021-038AU","GP_ID":"201714314","EPOCH":"2022-04-20T17:15:38.877408","TIME_SYSTEM":"UTC","ELEMENT_SET_NO":"999","MEAN_MOTION_DDOT":"0.0000000000000","MEAN_ELEMENT_THEORY":"SGP4","TLE_LINE2":"2 48395  53.0553 231.6263 0001817  50.7357 309.3793 15.06405729 54652","OBJECT_NAME":"STARLINK-2574","PERIAPSIS":"545.938","COUNTRY_CODE":"US","CLASSIFICATION_TYPE":"U","LAUNCH_DATE":"2021-05-04","CENTER_NAME":"EARTH","OBJECT_TYPE":"PAYLOAD","MEAN_MOTION":"15.06405729","DECAY_DATE":null,"REF_FRAME":"TEME","APOAPSIS":"548.454","TLE_LINE1":"1 48395U 21038AU  22110.71919997  .00002946  00000-0  21655-3 0  9994"}];
